NORAD_CAT_ID,OBJECT_NAME,OBJECT_TYPE,EPOCH,MEAN_MOTION,ECCENTRICITY,INCLINATION,RA_OF_ASC_NODE,ARG_OF_PERICENTER,MEAN_ANOMALY,BSTAR,MEAN_MOTION_DOT,MEAN_MOTION_DDOT,TLE_LINE0,TLE_LINE1,TLE_LINE2,SEMIMAJOR_AXIS,PERIOD,APOGEE,PERIGEE,DECAYED
53911.0,STARLINK-5048,PAYLOAD,2022-12-29 03:28:21,15.08832307,8.55e-05,53.2158,151.1148,93.713,266.396,-6.6111e-05,-1.339e-05,0.0,0 STARLINK-5048,1 53911U 22119AB  22363.14469523 -.00001339  00000-0 -66111-4 0  9991,2 53911  53.2158 151.1148 0000855  93.7130 266.3960 15.08832307 15710,6917.904,95.438,540.36,539.177,0.0
53911.0,STARLINK-5048,PAYLOAD,2022-12-29 16:11:26,15.08839312,7.509999999999998e-05,53.2167,148.7357,92.6101,267.4977,-4.0232e-05,-9.28e-06,0.0,0 STARLINK-5048,1 53911U 22119AB  22363.67461049 -.00000928  00000-0 -40232-4 0  9993,2 53911  53.2167 148.7357 0000751  92.6101 267.4977 15.08839312 15370,6917.882,95.438,540.2669999999998,539.2280000000002,0.0
53911.0,STARLINK-5048,PAYLOAD,2022-12-30 03:19:07,15.08844134,0.0001042,53.2163,146.6544,90.4001,269.7111,0.00010173,1.332e-05,0.0,0 STARLINK-5048,1 53911U 22119AB  22364.13828256  .00001332  00000-0  10173-3 0  9990,2 53911  53.2163 146.6544 0001042  90.4001 269.7111 15.08844134 15441,6917.868,95.437,540.4540000000002,539.012,0.0
53911.0,STARLINK-5048,PAYLOAD,2022-12-30 09:40:40,15.08834564,0.0001105,53.215,145.4649,108.9694,251.1418,0.00011323,1.514e-05,0.0,0 STARLINK-5048,1 53911U 22119AB  22364.40324681  .00001514  00000-0  11323-3 0  9993,2 53911  53.2150 145.4649 0001105 108.9694 251.1418 15.08834564 15488,6917.897,95.438,540.526,538.998,0.0
53911.0,STARLINK-5048,PAYLOAD,2022-12-30 19:12:59,15.08839306,0.000128,53.2162,143.68200000000004,79.704,280.4097,0.00011689,1.573e-05,0.0,0 STARLINK-5048,1 53911U 22119AB  22364.80068610  .00001573  00000-0  11689-3 0  9994,2 53911  53.2162 143.6820 0001280  79.7040 280.4097 15.08839306 15966,6917.8830000000025,95.438,540.633,538.862,0.0
53911.0,STARLINK-5048,PAYLOAD,2022-12-31 19:03:45,15.08844923,0.0001250999999999,53.2155,139.2235,76.8915,283.2217,1.4204000000000008e-05,-6.2e-07,0.0,0 STARLINK-5048,1 53911U 22119AB  22365.79428211 -.00000062  00000-0  14204-4 0  9990,2 53911  53.2155 139.2235 0001251  76.8915 283.2217 15.08844923 16110,6917.865,95.437,540.596,538.865,0.0
53911.0,STARLINK-5048,PAYLOAD,2022-12-31 20:39:09,15.08841921,0.000121,53.2158,138.9247,79.5383,280.5745,-2.5805e-05,-6.99e-06,0.0,0 STARLINK-5048,1 53911U 22119AB  22365.86052500 -.00000699  00000-0 -25805-4 0  9998,2 53911  53.2158 138.9247 0001210  79.5383 280.5745 15.08841921 15701,6917.875,95.437,540.577,538.9019999999998,0.0
53911.0,STARLINK-5048,PAYLOAD,2023-01-01 09:22:15,15.08834211,0.0001283,53.2162,136.5458,78.6565,281.4571,-0.00020965,-3.622e-05,0.0,0 STARLINK-5048,1 53911U 22119AB  23001.39045636 -.00003622  00000-0 -20965-3 0  9996,2 53911  53.2162 136.5458 0001283  78.6565 281.4571 15.08834211 15785,6917.898,95.438,540.651,538.876,0.0
53911.0,STARLINK-5048,PAYLOAD,2023-01-01 12:33:01,15.08830023,0.0001355,53.2152,135.9488,83.2431,276.8716,-7.7695e-05,-1.524e-05,0.0,0 STARLINK-5048,1 53911U 22119AB  23001.52293715 -.00001524  00000-0 -77695-4 0  9996,2 53911  53.2152 135.9488 0001355  83.2431 276.8716 15.08830023 16220,6917.911,95.438,540.7130000000002,538.839,0.0
53911.0,STARLINK-5048,PAYLOAD,2023-01-01 15:43:48,15.08821811,0.0001351999999999,53.2155,135.3546,82.8697,277.2449,-0.0001485,-2.649e-05,0.0,0 STARLINK-5048,1 53911U 22119AB  23001.65542393 -.00002649  00000-0 -14850-3 0  9991,2 53911  53.2155 135.3546 0001352  82.8697 277.2449 15.08821811 15826,6917.936,95.439,540.736,538.866,0.0
53911.0,STARLINK-5048,PAYLOAD,2023-01-02 01:16:07,15.08830561,0.0001186,53.2165,133.5711,79.5127,280.5999,-0.00011403,-2.102e-05,0.0,0 STARLINK-5048,1 53911U 22119AB  23002.05286082 -.00002102  00000-0 -11403-3 0  9991,2 53911  53.2165 133.5711 0001186  79.5127 280.5999 15.08830561 15882,6917.909000000002,95.438,540.595,538.9540000000002,0.0
53911.0,STARLINK-5048,PAYLOAD,2023-01-02 10:48:25,15.08833186,0.0001291,53.2168,131.7859,76.4256,283.688,-1.7865999999999998e-05,-5.72e-06,0.0,0 STARLINK-5048,1 53911U 22119AB  23002.45029646 -.00000572  00000-0 -17866-4 0  9995,2 53911  53.2168 131.7859 0001291  76.4256 283.6880 15.08833186 15940,6917.901,95.438,540.659,538.873,0.0
53911.0,STARLINK-5048,PAYLOAD,2023-01-02 15:34:34,15.0884106,0.0001273,53.2163,130.8948,76.2561,283.8573,1.8389e-05,5e-08,0.0,0 STARLINK-5048,1 53911U 22119AB  23002.64901124  .00000005  00000-0  18389-4 0  9996,2 53911  53.2163 130.8948 0001273  76.2561 283.8573 15.08841060 15975,6917.877,95.437,540.623,538.862,0.0
53911.0,STARLINK-5048,PAYLOAD,2023-01-03 10:39:13,15.08819642,0.0001227,53.2164,127.3264,74.2119,285.9008,8.468e-05,1.059e-05,0.0,0 STARLINK-5048,1 53911U 22119AB  23003.44390398  .00001059  00000-0  84680-4 0  9997,2 53911  53.2164 127.3264 0001227  74.2119 285.9008 15.08819642 16512,6917.943,95.439,540.656,538.9590000000002,0.0
53911.0,STARLINK-5048,PAYLOAD,2023-01-03 17:00:46,15.08820306,0.0001239,53.2164,126.1371,74.3029,285.81,7.9948e-05,9.84e-06,0.0,0 STARLINK-5048,1 53911U 22119AB  23003.70886675  .00000984  00000-0  79948-4 0  9991,2 53911  53.2164 126.1371 0001239  74.3029 285.8100 15.08820306 16131,6917.941,95.439,540.663,538.948,0.0
53911.0,STARLINK-5048,PAYLOAD,2023-01-04 13:40:46,15.08824732,0.0001323,53.2169,122.2706,74.9392,285.1747,0.00024582,3.625e-05,0.0,0 STARLINK-5048,1 53911U 22119AB  23004.56998178  .00003625  00000-0  24582-3 0  9996,2 53911  53.2169 122.2706 0001323  74.9392 285.1747 15.08824732 16269,6917.927,95.439,540.707,538.877,0.0
53911.0,STARLINK-5048,PAYLOAD,2023-01-04 15:16:10,15.08774835,0.0001460999999999,53.2169,121.9734,84.3645,275.7514,0.00088653,0.00013824,0.0,0 STARLINK-5048,1 53911U 22119AB  23004.63623074  .00013824  00000-0  88653-3 0  9995,2 53911  53.2169 121.9734 0001461  84.3645 275.7514 15.08774835 16697,6918.08,95.442,540.955,538.934,0.0
53911.0,STARLINK-5048,PAYLOAD,2023-01-05 00:48:27,15.08855661,0.0001413,53.2171,120.1897,74.9884,285.1264,6.4726e-05,7.43e-06,0.0,0 STARLINK-5048,1 53911U 22119AB  23005.03364698  .00000743  00000-0  64726-4 0  9996,2 53911  53.2171 120.1897 0001413  74.9884 285.1264 15.08855661 16333,6917.833000000001,95.437,540.675,538.72,0.0
53911.0,STARLINK-5048,PAYLOAD,2023-01-05 13:31:31,15.08851804,0.0001312,53.217,117.8096,71.8815,288.232,0.00014701,2.053e-05,0.0,0 STARLINK-5048,1 53911U 22119AB  23005.56356142  .00002053  00000-0  14701-3 0  9992,2 53911  53.2170 117.8096 0001312  71.8815 288.2320 15.08851804 16831,6917.844,95.437,540.617,538.802,0.0
53911.0,STARLINK-5048,PAYLOAD,2023-01-06 10:11:34,15.08828367,7.58e-05,53.2176,113.9446,84.1213,275.9865,-0.00022086,-3.8e-05,0.0,0 STARLINK-5048,1 53911U 22119AB  23006.42470498 -.00003800  00000-0 -22086-3 0  9997,2 53911  53.2176 113.9446 0000758  84.1213 275.9865 15.08828367 16548,6917.916,95.438,540.305,539.257,0.0
53911.0,STARLINK-5048,PAYLOAD,2023-01-06 16:33:07,15.08820058,0.0001359,53.2152,112.7582,72.0052,288.1088,-0.00022788,-3.911e-05,0.0,0 STARLINK-5048,1 53911U 22119AB  23006.68967476 -.00003911  00000-0 -22788-3 0  9994,2 53911  53.2152 112.7582 0001359  72.0052 288.1088 15.08820058 16581,6917.941,95.439,540.746,538.866,0.0
53911.0,STARLINK-5048,PAYLOAD,2023-01-07 00:30:01,15.08842996,8.55e-05,53.2173,111.2698,55.6445,304.4628,-8.974e-05,-1.716e-05,0.0,0 STARLINK-5048,1 53911U 22119AB  23007.02085470 -.00001716  00000-0 -89740-4 0  9991,2 53911  53.2173 111.2698 0000855  55.6445 304.4628 15.08842996 16632,6917.871,95.437,540.328,539.145,0.0
53911.0,STARLINK-5048,PAYLOAD,2023-01-07 06:51:34,15.08843831,8.02e-05,53.2173,110.079,63.5637,296.5437,-0.00011078,-2.05e-05,0.0,0 STARLINK-5048,1 53911U 22119AB  23007.28581417 -.00002050  00000-0 -11078-3 0  9991,2 53911  53.2173 110.0790 0000802  63.5637 296.5437 15.08843831 17094,6917.8690000000015,95.437,540.288,539.179,0.0
53911.0,STARLINK-5048,PAYLOAD,2023-01-07 13:13:06,15.08845461,0.0001172,53.2175,108.8888,64.8417,295.2697,-8.0437e-05,-1.568e-05,0.0,0 STARLINK-5048,1 53911U 22119AB  23007.55077206 -.00001568  00000-0 -80437-4 0  9996,2 53911  53.2175 108.8888 0001172  64.8417 295.2697 15.08845461 17130,6917.864000000001,95.437,540.539,538.918,0.0
53911.0,STARLINK-5048,PAYLOAD,2023-01-08 06:42:22,15.08811423,4.75e-05,53.2195,105.6199,23.2738,336.8276,6.8073e-05,7.95e-06,0.0,0 STARLINK-5048,1 53911U 22119AB  23008.27943021  .00000795  00000-0  68073-4 0  9994,2 53911  53.2195 105.6199 0000475  23.2738 336.8276 15.08811423 16823,6917.968000000002,95.439,540.161,539.504,0.0
53911.0,STARLINK-5048,PAYLOAD,2023-01-08 16:14:41,15.08815324,0.0001335,53.2158,103.8362,60.3633,299.7492,0.00015726,2.214e-05,0.0,0 STARLINK-5048,1 53911U 22119AB  23008.67687071  .00002214  00000-0  15726-3 0  9992,2 53911  53.2158 103.8362 0001335  60.3633 299.7492 15.08815324 16883,6917.956,95.439,540.744,538.8969999999998,0.0
53911.0,STARLINK-5048,PAYLOAD,2023-01-09 12:54:41,15.08843491,0.0001334,53.2157,99.9699,59.5998,300.5126,3.7463e-05,3.08e-06,0.0,0 STARLINK-5048,1 53911U 22119AB  23009.53798044  .00000308  00000-0  37463-4 0  9996,2 53911  53.2157  99.9699 0001334  59.5998 300.5126 15.08843491 17010,6917.87,95.437,540.658,538.812,0.0
53911.0,STARLINK-5048,PAYLOAD,2023-01-09 16:05:28,15.08838058,0.000143,53.2152,99.3757,62.1038,298.0099,6.7004e-05,7.79e-06,0.0,0 STARLINK-5048,1 53911U 22119AB  23009.67046302  .00000779  00000-0  67004-4 0  9990,2 53911  53.2152  99.3757 0001430  62.1038 298.0099 15.08838058 17457,6917.886,95.438,540.741,538.762,0.0
53911.0,STARLINK-5048,PAYLOAD,2023-01-09 22:27:01,15.0882887,0.0001406999999999,53.2152,98.1859,60.3792,299.7340000000001,8.2715e-05,1.028e-05,0.0,0 STARLINK-5048,1 53911U 22119AB  23009.93542909  .00001028  00000-0  82715-4 0  9997,2 53911  53.2152  98.1859 0001407  60.3792 299.7340 15.08828870 17074,6917.914000000002,95.438,540.753,538.806,0.0
